[{"OBJECT_NAME":"TIANQI-17","OBJECT_ID":"2025-105B","EPOCH":"2026-03-09T16:13:53.676480","MEAN_MOTION":13.99116409,"ECCENTRICITY":0.0011901,"INCLINATION":44.9793,"RA_OF_ASC_NODE":104.4582,"ARG_OF_PERICENTER":269.8023,"MEAN_ANOMALY":90.1446,"EPHEMERIS_TYPE":0,"CLASSIFICATION_TYPE":"U","NORAD_CAT_ID":64059,"ELEMENT_SET_NO":999,"REV_AT_EPOCH":4126,"BSTAR":0.0001561646,"MEAN_MOTION_DOT":9.9e-7,"MEAN_MOTION_DDOT":0},{"OBJECT_NAME":"SCOUT G-1 DEB","OBJECT_ID":"1991-045F","EPOCH":"2026-03-09T11:18:59.007456","MEAN_MOTION":14.25245186,"ECCENTRICITY":0.01290653,"INCLINATION":89.2679,"RA_OF_ASC_NODE":241.8215,"ARG_OF_PERICENTER":224.0688,"MEAN_ANOMALY":190.1501,"EPHEMERIS_TYPE":0,"CLASSIFICATION_TYPE":"U","NORAD_CAT_ID":21712,"ELEMENT_SET_NO":999,"REV_AT_EPOCH":79560,"BSTAR":0.00041526312,"MEAN_MOTION_DOT":1.078e-5,"MEAN_MOTION_DDOT":0}]
